BLUEBON                 
1 62688U 25009CH  26068.70316231  .00010452  00000+0  37313-3 0  9992
2 62688  97.4017 152.2033 0001193  43.3900 316.7434 15.29047253 63767
STARLINK-35650          
1 66573U 25268S   26068.14584406  .00021397  00000+0  78547-3 0  9999
2 66573  43.0029 350.3909 0001484 294.8754  65.1944 15.27552243 17870
